STARLINK-37577          
1 69452U 26127K   26187.17682639  .00201003  00000+0  12787-2 0  9992
2 69452  53.1599 167.6139 0000785  94.2492 265.8618 15.75342049  4407
STARLINK-37500          
1 69453U 26127L   26187.50344228  .00078044  00000+0  50678-3 0  9998
2 69453  53.1567 166.0982 0001745 157.9950 202.1146 15.75320641  4454
STARLINK-37575          
1 69454U 26127M   26187.23606737  .00185916  00000+0  11862-2 0  9993
2 69454  53.1592 167.2701 0001261 129.6575 230.4557 15.75322038  4415
STARLINK-37642          
1 69455U 26127N   26187.57142206  .00183317  00000+0  11674-2 0  9991
2 69455  53.1564 165.8110 0002413 197.6476 162.4461 15.75373423  4465
STARLINK-37513          
1 69456U 26127P   26187.75003471  .00029738  00000+0  19779-3 0  9993
2 69456  53.1589 164.2863 0000576 110.2196 134.2088 15.75202271  5790
STARLINK-37563          
1 69457U 26127Q   26187.81159977  .00259941  00000+0  16424-2 0  9998
2 69457  53.1591 164.4605 0001158  62.3077 297.8061 15.75321283  4502
STARLINK-37565          
1 69458U 26127R   26187.48496141  .00156300  00000+0  99982-3 0  9995
2 69458  53.1585 165.9731 0000907 141.8800 218.2285 15.75358917  4453
STARLINK-37498          
1 69459U 26127S   26187.37622561  .00101695  00000+0  65710-3 0  9990
2 69459  53.1568 166.7246 0001575 129.8729 230.2430 15.75326623  4436
STARLINK-37384          
1 69460U 26127T   26187.80673162  .00049783  00000+0  32683-3 0  9995
2 69460  53.1597 164.4282 0000910 119.5279 240.5832 15.75252138  4500
STARLINK-37707          
1 69461U 26127U   26187.80252104  .00239832  00000+0  15178-2 0  9990
2 69461  53.1593 164.3980 0001062 146.2248 213.8840 15.75343376  4500
STARLINK-37525          
1 69462U 26127V   26187.54387196  .00074249  00000+0  48298-3 0  9991
2 69462  53.1578 165.6308 0001485  43.9843 316.1296 15.75300642  4461
STARLINK-37526          
1 69463U 26127W   26187.85688929  .00152015  00000+0  97693-3 0  9995
2 69463  53.1576 164.0208 0000862  58.6980 301.4125 15.75266659  4518
STARLINK-37574          
1 69464U 26127X   26187.41731147  .00126730  00000+0  81374-3 0  9993
2 69464  53.1581 166.2591 0001452 135.8716 224.2420 15.75374398  4447
STARLINK-37535          
1 69465U 26127Y   26187.85656194  .00125016  00000+0  80681-3 0  9996
2 69465  53.1572 164.0186 0000722 111.2510 248.8588 15.75264521  4514
STARLINK-37583          
1 69466U 26127Z   26187.32209976  .00280949  00000+0  17673-2 0  9998
2 69466  53.1588 166.3614 0001633  78.3773 281.7430 15.75360594  4439
STARLINK-37546          
1 69467U 26127AA  26187.34479054  .00232588  00000+0  14715-2 0  9997
2 69467  53.1565 166.5098 0001204  99.5960 260.5196 15.75372741  4431
STARLINK-37532          
1 69468U 26127AB  26187.30848870  .00196454  00000+0  12522-2 0  9995
2 69468  53.1592 166.2714 0001578  85.3832 274.7369 15.75312230  4435
STARLINK-37708          
1 69469U 26127AC  26187.53478954  .00185050  00000+0  11817-2 0  9999
2 69469  53.1572 165.5606 0000871 120.5281 239.5825 15.75304051  4462
STARLINK-37686          
1 69470U 26127AD  26187.53058725  .00156600  00000+0  10035-2 0  9991
2 69470  53.1582 165.5343 0002728  29.1072 331.0100 15.75314706  4460
STARLINK-37451          
1 69471U 26127AE  26187.34854569  .00339763  00000+0  16516-2 0  9994
2 69471  53.1578 165.7975 0001132  71.3275 288.7870 15.80958444  4440
DTC TEST OBJECT A       
1 69472U 26128A   26187.57362314  .00010444  00000+0  16903-3 0  9996
2 69472  55.0003 215.5326 0010650 348.5343  11.5448 15.53430353  4244
DTC TEST OBJECT B       
1 69473U 26128B   26178.37654890  .00024134  00000+0  33565-3 0  9992
2 69473  55.0021 257.9040 0009934 325.3113  34.7274 15.56860342  2801
TJS-25                  
1 69474U 26129A   26187.81240304 -.00000356  00000+0  00000+0 0  9999
2 69474   5.9632 330.2942 0002881 283.0545  84.1200  1.00267897   269
STARLINK-37816          
1 69478U 26131A   26187.75003471 -.02417394  00000+0 -16902-1 0  9998
2 69478  97.2850 209.1619 0001546  87.3847 277.0330 15.77632135  5151
STARLINK-37878          
1 69479U 26131B   26187.62764782  .00225483  00000+0  11456-2 0  9996
2 69479  97.2849 209.0203 0002469  44.5707 315.5760 15.80856577  5239
STARLINK-37817          
1 69480U 26131C   26187.49392727  .00326322  00000+0  16340-2 0  9990
2 69480  97.2845 208.8964 0001604  63.9700 296.1734 15.80915835  5212
STARLINK-37727          
1 69481U 26131D   26187.43005706 -.00882422  00000+0 -53860-2 0  9991
2 69481  97.2850 208.8308 0001902  47.9830 312.1599 15.79587509  5206
STARLINK-37814          
1 69482U 26131E   26187.55552904  .00212811  00000+0  10852-2 0  9993
2 69482  97.2848 208.9652 0000829 138.2551 221.8781 15.80810123  5222
STARLINK-37869          
1 69483U 26131F   26185.00003471  .00061384  00000+0  31925-3 0  9994
2 69483  97.2832 206.2639 0001177  84.5685 145.4313 15.80795949  4713
STARLINK-37873          
1 69484U 26131G   26187.36440404  .00396165  00000+0  19611-2 0  9992
2 69484  97.2846 208.7667 0014959 205.5180 154.5352 15.80855337  5199
